{
  "48555": {
    "noradId": "48555",
    "tle": [
      "1 48555C 21041C   25302.15048611 -.00055860  00000+0 -37422-2 0  3026",
      "2 48555  53.0552  12.1209 0001500  88.2366 281.5222 15.06458890    12"
    ]
  },
  "48556": {
    "noradId": "48556",
    "tle": [
      "1 48556C 21041D   25302.14145833 -.00056053  00000+0 -37543-2 0  3029",
      "2 48556  53.0555  12.1607 0001418  87.3720 293.3827 15.06467853    11"
    ]
  },
  "48557": {
    "noradId": "48557",
    "tle": [
      "1 48557C 21041E   25302.14631944 -.00053102  00000+0 -35574-2 0  3027",
      "2 48557  53.0541   2.1400 0001332  89.9969 292.1370 15.06457271    18"
    ]
  },
  "48558": {
    "noradId": "48558",
    "tle": [
      "1 48558C 21041F   25302.14423611 -.00052562  00000+0 -35212-2 0  3026",
      "2 48558  53.0551   2.1483 0001360  86.3349 304.4889 15.06457463    10"
    ]
  },
  "48562": {
    "noradId": "48562",
    "tle": [
      "1 48562C 21041K   25302.14076389 -.00014210  00000+0 -95247-3 0  3020",
      "2 48562  53.0552   2.1677 0001583  90.8938  41.1574 15.06397145    18"
    ]
  },
  "48563": {
    "noradId": "48563",
    "tle": [
      "1 48563C 21041L   25302.14076389 -.00047129  00000+0 -31572-2 0  3026",
      "2 48563  53.0547   2.1640 0001334  84.2309 307.7415 15.06451333    11"
    ]
  },
  "48564": {
    "noradId": "48564",
    "tle": [
      "1 48564C 21041M   25302.14284722 -.00053113  00000+0 -35582-2 0  3024",
      "2 48564  53.0552   2.1570 0001241  92.7561 350.5437 15.06456640    17"
    ]
  },
  "48566": {
    "noradId": "48566",
    "tle": [
      "1 48566C 21041P   25302.15187500 -.00053314  00000+0 -35709-2 0  3027",
      "2 48566  53.0552  12.0871 0001479  76.9814 320.2462 15.06464427    15"
    ]
  },
  "48568": {
    "noradId": "48568",
    "tle": [
      "1 48568C 21041R   25302.14354167 -.00051029  00000+0 -34179-2 0  3024",
      "2 48568  53.0548   2.1532 0001436  91.9902 115.0324 15.06461025    12"
    ]
  },
  "48569": {
    "noradId": "48569",
    "tle": [
      "1 48569C 21041S   25302.15048611 -.00052513  00000+0 -35183-2 0  3025",
      "2 48569  53.0548   2.1218 0001486  84.3150  20.4501 15.06452245    10"
    ]
  },
  "48570": {
    "noradId": "48570",
    "tle": [
      "1 48570C 21041T   25302.14284722 -.00021714  00000+0 -14552-2 0  3027",
      "2 48570  53.0542  12.1553 0001115  85.0554  43.2523 15.06413214    14"
    ]
  },
  "48571": {
    "noradId": "48571",
    "tle": [
      "1 48571C 21041U   25302.14631944 -.00046924  00000+0 -31433-2 0  3027",
      "2 48571  53.0543  12.1411 0001385  87.1210  20.0043 15.06452851    10"
    ]
  },
  "48572": {
    "noradId": "48572",
    "tle": [
      "1 48572C 21041V   25302.14770833 -.00047609  00000+0 -31894-2 0  3021",
      "2 48572  53.0543  12.1315 0001655  91.8153  42.8555 15.06451626    11"
    ]
  },
  "48573": {
    "noradId": "48573",
    "tle": [
      "1 48573C 21041W   25302.13590278 -.00049378  00000+0 -33078-2 0  3025",
      "2 48573  53.0546   2.1870 0001437  94.2482  91.3668 15.06454897    17"
    ]
  },
  "48574": {
    "noradId": "48574",
    "tle": [
      "1 48574C 21041X   25302.14423611 -.00029930  00000+0 -20060-2 0  3022",
      "2 48574  53.0539 332.2346 0001463  89.1165 306.6763 15.06417050    13"
    ]
  },
  "48575": {
    "noradId": "48575",
    "tle": [
      "1 48575C 21041Y   25302.14979167 -.00064570  00000+0 -43268-2 0  3029",
      "2 48575  53.0546 322.4423 0001351  83.6876 257.1074 15.06458700    15"
    ]
  },
  "48576": {
    "noradId": "48576",
    "tle": [
      "1 48576C 21041Z   25302.14770833 -.00046889  00000+0 -31416-2 0  3024",
      "2 48576  53.0538 337.1334 0001385  92.3985 234.7929 15.06445286    11"
    ]
  },
  "48577": {
    "noradId": "48577",
    "tle": [
      "1 48577C 21041AA  25302.14354167 -.00052337  00000+0 -35058-2 0  3024",
      "2 48577  53.0553   2.4234 0001448  88.0801  38.8152 15.06460042    17"
    ]
  },
  "48578": {
    "noradId": "48578",
    "tle": [
      "1 48578C 21041AB  25302.14423611 -.00054391  00000+0 -36438-2 0  3021",
      "2 48578  53.0553   2.6603 0001376  92.2394  18.2544 15.06457693    19"
    ]
  },
  "48580": {
    "noradId": "48580",
    "tle": [
      "1 48580C 21041AD  25302.13868056 -.00028662  00000+0 -19205-2 0  3024",
      "2 48580  53.0550 337.1835 0001402  89.0119  29.1448 15.06425429    17"
    ]
  },
  "48581": {
    "noradId": "48581",
    "tle": [
      "1 48581C 21041AE  25302.14770833 -.00053994  00000+0 -36185-2 0  3023",
      "2 48581  53.0549 327.1427 0001333  83.0382 299.1688 15.06444366    17"
    ]
  },
  "48582": {
    "noradId": "48582",
    "tle": [
      "1 48582C 21041AF  25302.13034722 -.00044339  00000+0 -29712-2 0  3024",
      "2 48582  53.0541 327.3752 0001374  84.2475 303.6306 15.06437462    11"
    ]
  },
  "48583": {
    "noradId": "48583",
    "tle": [
      "1 48583C 21041AG  25302.15326389 -.00054166  00000+0 -36281-2 0  3028",
      "2 48583  53.0540  12.1088 0001473  92.6739  32.1272 15.06463972    19"
    ]
  },
  "48584": {
    "noradId": "48584",
    "tle": [
      "1 48584C 21041AH  25302.13798611 -.00055479  00000+0 -37164-2 0  3027",
      "2 48584  53.0546  12.1758 0001352  94.7445  87.1812 15.06461628    19"
    ]
  },
  "48586": {
    "noradId": "48586",
    "tle": [
      "1 48586C 21041AK  25302.14423611 -.00049555  00000+0 -33198-2 0  3026",
      "2 48586  53.0545  12.1474 0001547  92.0550 103.7855 15.06452752    19"
    ]
  },
  "48589": {
    "noradId": "48589",
    "tle": [
      "1 48589C 21041AN  25302.14354167 -.00049705  00000+0 -33300-2 0  3020",
      "2 48589  53.0542   2.1514 0001453  88.3870 218.6914 15.06451744    14"
    ]
  },
  "48592": {
    "noradId": "48592",
    "tle": [
      "1 48592C 21041AR  25302.13520833 -.00038657  00000+0 -25899-2 0  3026",
      "2 48592  53.0542  12.4202 0001253  92.5393  94.1378 15.06440579    16"
    ]
  },
  "48593": {
    "noradId": "48593",
    "tle": [
      "1 48593C 21041AS  25302.13868056 -.00000723  00000+0 -48400-4 0  3027",
      "2 48593  53.0549  12.1747 0001365  89.6455 195.9556 15.06414240    19"
    ]
  },
  "48594": {
    "noradId": "48594",
    "tle": [
      "1 48594C 21041AT  25302.12479167 -.00060289  00000+0 -40380-2 0  3028",
      "2 48594  53.0545 342.3221 0001371  84.5249 330.7119 15.06471916    10"
    ]
  },
  "48595": {
    "noradId": "48595",
    "tle": [
      "1 48595C 21041AU  25302.13590278 -.00033899  00000+0 -22708-2 0  3028",
      "2 48595  53.0548  12.1877 0001440  86.2960 284.2678 15.06439781    16"
    ]
  },
  "48596": {
    "noradId": "48596",
    "tle": [
      "1 48596C 21041AV  25302.14493056 -.00071132  00000+0 -47638-2 0  3027",
      "2 48596  53.0551  12.1464 0001341  83.7706 215.7925 15.06486171    12"
    ]
  },
  "48597": {
    "noradId": "48597",
    "tle": [
      "1 48597C 21041AW  25302.13312500 -.00052223  00000+0 -34984-2 0  3021",
      "2 48597  53.0548  12.2007 0001296  86.3709 109.1919 15.06457036    11"
    ]
  },
  "48602": {
    "noradId": "48602",
    "tle": [
      "1 48602C 21041BB  25302.12895833 -.00050611  00000+0 -33909-2 0  3027",
      "2 48602  53.0550 347.2175 0001390  89.3680 101.0898 15.06450037    15"
    ]
  },
  "48603": {
    "noradId": "48603",
    "tle": [
      "1 48603C 21041BC  25302.14562500 -.00052635  00000+0 -35267-2 0  3029",
      "2 48603  53.0554 342.1415 0001359  92.2781 301.2368 15.06450260    15"
    ]
  },
  "48604": {
    "noradId": "48604",
    "tle": [
      "1 48604C 21041BD  25302.14423611 -.00043798  00000+0 -29339-2 0  3022",
      "2 48604  53.0550  12.1495 0001420  91.7084 284.1073 15.06450767    17"
    ]
  },
  "48639": {
    "noradId": "48639",
    "tle": [
      "1 48639C 21044B   25302.15187500 -.00052282  00000+0 -35031-2 0  3022",
      "2 48639  53.0550 347.1264 0001419  89.3856 305.4155 15.06450066    18"
    ]
  },
  "48640": {
    "noradId": "48640",
    "tle": [
      "1 48640C 21044C   25302.14770833 -.00057095  00000+0 -38255-2 0  3028",
      "2 48640  53.0550 347.4161 0001445  83.6925 328.3133 15.06454974    14"
    ]
  },
  "48641": {
    "noradId": "48641",
    "tle": [
      "1 48641C 21044D   25302.14145833 -.00060143  00000+0 -40288-2 0  3022",
      "2 48641  53.0550 352.1626 0001393  91.2200 219.5582 15.06466500    14"
    ]
  },
  "48642": {
    "noradId": "48642",
    "tle": [
      "1 48642C 21044E   25302.14076389 -.00055089  00000+0 -36909-2 0  3020",
      "2 48642  53.0555 352.1770 0001353  84.3917 142.5926 15.06455569    14"
    ]
  },
  "48643": {
    "noradId": "48643",
    "tle": [
      "1 48643C 21044F   25302.14701389 -.00067878  00000+0 -45472-2 0  3020",
      "2 48643  53.0548 352.1298 0001464  89.1368 276.9256 15.06472109    15"
    ]
  },
  "48644": {
    "noradId": "48644",
    "tle": [
      "1 48644C 21044G   25302.14562500 -.00044728  00000+0 -29966-2 0  3020",
      "2 48644  53.0547 352.1432 0001402  91.3208 282.0556 15.06445599    19"
    ]
  },
  "48646": {
    "noradId": "48646",
    "tle": [
      "1 48646C 21044J   25302.15118056 -.00041030  00000+0 -27490-2 0  3029",
      "2 48646  53.0542 352.1176 0001263  91.0460 352.4722 15.06440197    19"
    ]
  },
  "48648": {
    "noradId": "48648",
    "tle": [
      "1 48648C 21044L   25302.14145833 -.00061320  00000+0 -41073-2 0  3020",
      "2 48648  53.0545 352.3267 0001470  83.9690 246.6692 15.06471099    17"
    ]
  },
  "48649": {
    "noradId": "48649",
    "tle": [
      "1 48649C 21044M   25302.14215278 -.00050814  00000+0 -34041-2 0  3025",
      "2 48649  53.0544 352.1604 0001433  87.8241 346.7003 15.06454890    12"
    ]
  },
  "48650": {
    "noradId": "48650",
    "tle": [
      "1 48650C 21044N   25302.13243056 -.00047216  00000+0 -31637-2 0  3021",
      "2 48650  53.0543 352.2007 0001353  82.2354 319.5314 15.06443570    12"
    ]
  }
}